{
  "links" : {
    "next" : "https://api.nasa.gov/neo/rest/v1/feed?start_date=2015-03-23&end_date=2015-03-23&detailed=true&api_key=t0TVs3DtDT2H8Oy2Zy8m2eVrNsAVKAexjcZXUckd",
    "prev" : "https://api.nasa.gov/neo/rest/v1/feed?start_date=2015-03-21&end_date=2015-03-21&detailed=true&api_key=t0TVs3DtDT2H8Oy2Zy8m2eVrNsAVKAexjcZXUckd",
    "self" : "https://api.nasa.gov/neo/rest/v1/feed?start_date=2015-03-22&end_date=2015-03-22&detailed=true&api_key=t0TVs3DtDT2H8Oy2Zy8m2eVrNsAVKAexjcZXUckd"
  },
  "element_count" : 6,
  "near_earth_objects" : {
    "2015-03-22" : [ {
      "links" : {
        "self" : "https://api.nasa.gov/neo/rest/v1/neo/3714182?api_key=t0TVs3DtDT2H8Oy2Zy8m2eVrNsAVKAexjcZXUckd"
      },
      "neo_reference_id" : "3714182",
      "name" : "(2015 FC117)",
      "nasa_jpl_url" : "http://ssd.jpl.nasa.gov/sbdb.cgi?sstr=3714182",
      "absolute_magnitude_h" : 25.5,
      "estimated_diameter" : {
        "kilometers" : {
          "estimated_diameter_min" : 0.0211132445,
          "estimated_diameter_max" : 0.0472106499
        },
        "meters" : {
          "estimated_diameter_min" : 21.113244479,
          "estimated_diameter_max" : 47.2106498806
        },
        "miles" : {
          "estimated_diameter_min" : 0.0131191578,
          "estimated_diameter_max" : 0.0293353287
        },
        "feet" : {
          "estimated_diameter_min" : 69.2691770164,
          "estimated_diameter_max" : 154.8905885541
        }
      },
      "is_potentially_hazardous_asteroid" : false,
      "close_approach_data" : [ {
        "close_approach_date" : "2015-03-22",
        "epoch_date_close_approach" : 1427007600000,
        "relative_velocity" : {
          "kilometers_per_second" : "15.331920032",
          "kilometers_per_hour" : "55194.912115087",
          "miles_per_hour" : "34295.9719195106"
        },
        "miss_distance" : {
          "astronomical" : "0.043756475",
          "lunar" : "17.0212688446",
          "kilometers" : "6545875.5",
          "miles" : "4067418.5"
        },
        "orbiting_body" : "Earth"
      } ],
      "orbital_data" : {
        "orbit_id" : "7",
        "orbit_determination_date" : "2017-04-06 08:34:49",
        "orbit_uncertainty" : "8",
        "minimum_orbit_intersection" : ".0419982",
        "jupiter_tisserand_invariant" : "4.343",
        "epoch_osculation" : "2457107.5",
        "eccentricity" : ".3735731085892445",
        "semi_major_axis" : "1.513153389116203",
        "inclination" : "25.29980634060369",
        "ascending_node_longitude" : "183.843380711742",
        "orbital_period" : "679.865274433825",
        "perihelion_distance" : ".9478799737717125",
        "perihelion_argument" : "311.4394552199445",
        "aphelion_distance" : "2.078426804460693",
        "perihelion_time" : "2457064.523930435683",
        "mean_anomaly" : "22.75654548768991",
        "mean_motion" : ".5295166756381242",
        "equinox" : "J2000"
      }
    }, {
      "links" : {
        "self" : "https://api.nasa.gov/neo/rest/v1/neo/3457846?api_key=t0TVs3DtDT2H8Oy2Zy8m2eVrNsAVKAexjcZXUckd"
      },
      "neo_reference_id" : "3457846",
      "name" : "(2009 HG21)",
      "nasa_jpl_url" : "http://ssd.jpl.nasa.gov/sbdb.cgi?sstr=3457846",
      "absolute_magnitude_h" : 25.0,
      "estimated_diameter" : {
        "kilometers" : {
          "estimated_diameter_min" : 0.02658,
          "estimated_diameter_max" : 0.0594346868
        },
        "meters" : {
          "estimated_diameter_min" : 26.58,
          "estimated_diameter_max" : 59.4346868419
        },
        "miles" : {
          "estimated_diameter_min" : 0.0165160412,
          "estimated_diameter_max" : 0.0369309908
        },
        "feet" : {
          "estimated_diameter_min" : 87.2047272,
          "estimated_diameter_max" : 194.9956979785
        }
      },
      "is_potentially_hazardous_asteroid" : false,
      "close_approach_data" : [ {
        "close_approach_date" : "2015-03-22",
        "epoch_date_close_approach" : 1427007600000,
        "relative_velocity" : {
          "kilometers_per_second" : "8.8143463662",
          "kilometers_per_hour" : "31731.6469184729",
          "miles_per_hour" : "19716.8113866478"
        },
        "miss_distance" : {
          "astronomical" : "0.2490438898",
          "lunar" : "96.878074646",
          "kilometers" : "37256436",
          "miles" : "23150076"
        },
        "orbiting_body" : "Earth"
      } ],
      "orbital_data" : {
        "orbit_id" : "8",
        "orbit_determination_date" : "2017-04-06 09:00:45",
        "orbit_uncertainty" : "6",
        "minimum_orbit_intersection" : ".0164566",
        "jupiter_tisserand_invariant" : "6.504",
        "epoch_osculation" : "2458000.5",
        "eccentricity" : ".3677935621118633",
        "semi_major_axis" : ".9080503069017095",
        "inclination" : "5.438784984863222",
        "ascending_node_longitude" : "32.49216172834321",
        "orbital_period" : "316.0554555012047",
        "perihelion_distance" : ".5740752499495591",
        "perihelion_argument" : "316.9806522691544",
        "aphelion_distance" : "1.24202536385386",
        "perihelion_time" : "2457878.095988292537",
        "mean_anomaly" : "139.423140615647",
        "mean_motion" : "1.139040613708463",
        "equinox" : "J2000"
      }
    }, {
      "links" : {
        "self" : "https://api.nasa.gov/neo/rest/v1/neo/3607531?api_key=t0TVs3DtDT2H8Oy2Zy8m2eVrNsAVKAexjcZXUckd"
      },
      "neo_reference_id" : "3607531",
      "name" : "(2012 PC20)",
      "nasa_jpl_url" : "http://ssd.jpl.nasa.gov/sbdb.cgi?sstr=3607531",
      "absolute_magnitude_h" : 21.3,
      "estimated_diameter" : {
        "kilometers" : {
          "estimated_diameter_min" : 0.1460679643,
          "estimated_diameter_max" : 0.3266178974
        },
        "meters" : {
          "estimated_diameter_min" : 146.0679642714,
          "estimated_diameter_max" : 326.6178974458
        },
        "miles" : {
          "estimated_diameter_min" : 0.090762397,
          "estimated_diameter_max" : 0.2029508896
        },
        "feet" : {
          "estimated_diameter_min" : 479.2256199,
          "estimated_diameter_max" : 1071.581062656
        }
      },
      "is_potentially_hazardous_asteroid" : false,
      "close_approach_data" : [ {
        "close_approach_date" : "2015-03-22",
        "epoch_date_close_approach" : 1427007600000,
        "relative_velocity" : {
          "kilometers_per_second" : "7.60879409",
          "kilometers_per_hour" : "27391.6587239609",
          "miles_per_hour" : "17020.1114998967"
        },
        "miss_distance" : {
          "astronomical" : "0.2939244795",
          "lunar" : "114.3366241455",
          "kilometers" : "43970476",
          "miles" : "27321988"
        },
        "orbiting_body" : "Earth"
      } ],
      "orbital_data" : {
        "orbit_id" : "32",
        "orbit_determination_date" : "2017-04-06 08:49:18",
        "orbit_uncertainty" : "2",
        "minimum_orbit_intersection" : ".160533",
        "jupiter_tisserand_invariant" : "4.881",
        "epoch_osculation" : "2458000.5",
        "eccentricity" : ".1839948083844112",
        "semi_major_axis" : "1.327671483311088",
        "inclination" : "14.40789926797543",
        "ascending_node_longitude" : "330.1758335515338",
        "orbital_period" : "558.77165547596",
        "perihelion_distance" : "1.083386823141818",
        "perihelion_argument" : "290.1933203118511",
        "aphelion_distance" : "1.571956143480359",
        "perihelion_time" : "2457758.119117220737",
        "mean_anomaly" : "156.158811824858",
        "mean_motion" : ".6442703320256163",
        "equinox" : "J2000"
      }
    } ]
  }
}